OBJECT_NAME,OBJECT_ID,EPOCH,MEAN_MOTION,ECCENTRICITY,INCLINATION,RA_OF_ASC_NODE,ARG_OF_PERICENTER,MEAN_ANOMALY,EPHEMERIS_TYPE,CLASSIFICATION_TYPE,NORAD_CAT_ID,ELEMENT_SET_NO,REV_AT_EPOCH,BSTAR,MEAN_MOTION_DOT,MEAN_MOTION_DDOT
COSMOS 2058,1990-010A,2026-07-18T12:03:27.091296,15.12167946,.00081796,82.4674,278.4700,235.9842,124.0612,0,U,20465,999,96200,.10766352E-3,.1887E-4,0
SL-14 R/B,1990-010B,2026-07-18T06:12:52.246656,14.83664002,.00185561,82.5037,144.7658,226.4156,133.5519,0,U,20466,999,94784,.20109442E-4,.19E-5,0
SL-14 R/B,1990-018B,2026-07-18T04:47:55.090752,14.82235151,.00167975,82.5215,101.1217,27.4687,332.7411,0,U,20511,999,94191,.22152713E-4,.201E-5,0
HST,1990-037B,2026-07-18T10:24:18.309600,15.31079978,.00021841,28.4721,226.9603,135.0814,224.9959,0,U,20580,999,79336,.93233307E-4,.311E-4,0
SL-16 R/B,1990-046B,2026-07-17T23:33:32.863104,14.15026474,.00123362,70.9990,24.2710,109.4019,250.8439,0,U,20625,999,86682,.17602775E-3,.294E-5,0
COSMOS 2084,1990-055A,2026-07-18T12:44:29.540544,15.06230026,.00085022,62.7878,249.1001,321.4179,38.6313,0,U,20663,999,95602,.6015867E-4,.683E-5,0
SL-6 R/B(2),1990-055D,2026-07-18T08:43:53.956416,15.04095535,.00456318,62.7806,169.2767,9.4180,350.7764,0,U,20666,999,95784,.83887169E-4,.983E-5,0
SL-8 R/B,1990-078B,2026-07-18T06:58:27.475392,14.93627013,.03431484,82.9035,133.5086,292.9981,63.5387,0,U,20775,999,82876,.21874343E-3,.7723E-4,0
SL-8 R/B,1991-006B,2026-07-18T15:37:43.002624,13.77509711,.00232391,82.9404,72.6242,31.2011,346.6266,0,U,21088,999,78210,.59000895E-4,.74E-6,0
OKEAN-3,1991-039A,2026-07-18T07:30:39.314592,15.05445294,.00126859,82.5147,210.1943,242.6649,117.3287,0,U,21397,999,88468,.11930893E-3,.1743E-4,0
COSMOS 2151,1991-042A,2026-07-18T14:27:50.146272,15.00518400,.00116356,82.4983,317.3627,343.6530,16.4317,0,U,21422,999,88282,.71971986E-4,.935E-5,0
SL-14 R/B,1991-042B,2026-07-18T05:06:51.570432,14.81918980,.00172522,82.4931,97.8015,167.0493,193.1168,0,U,21423,999,87240,.1911851E-4,.175E-5,0
ERS-1,1991-050A,2026-07-18T07:17:51.473472,14.39534846,.00320938,98.7796,220.7620,172.6051,187.5616,0,U,21574,999,83452,.7388501E-4,.186E-5,0
ARIANE 40 R/B,1991-050F,2026-07-18T02:44:39.363936,14.42972778,.00040393,98.1861,246.3240,54.9770,305.1799,0,U,21610,999,83780,.43221953E-4,.103E-5,0
INTERCOSMOS 25,1991-086A,2026-07-18T09:28:44.779008,12.12241586,.14847389,82.6003,230.9248,195.0207,160.1792,0,U,21819,999,51252,.41245655E-4,.225E-5,0
SL-8 R/B,1992-008B,2026-07-18T08:10:40.418976,13.75984291,.00358072,82.9275,170.6249,128.0622,29.8553,0,U,21876,999,72738,.86908175E-4,.1E-5,0
SL-8 R/B,1992-020B,2026-07-18T14:42:49.618656,13.75549989,.0027844,82.9278,56.5106,293.5686,79.0341,0,U,21938,999,71913,-.20057969E-4,-.4E-7,0
USA 81,1992-023A,2026-07-18T13:41:19.287168,14.32405457,.00018357,85.0048,55.8894,65.0744,295.0639,0,U,21949,999,11352,.23417536E-4,.83E-6,0
COSMOS 2219,1992-076A,2026-07-18T04:09:50.369760,14.14107606,.00184391,71.0610,105.2980,353.0297,7.0566,0,U,22219,999,73682,-.10648961E-3,-.25E-5,0
SL-16 R/B,1992-076B,2026-07-18T07:20:59.925696,14.16878055,.00150351,71.0002,273.2281,258.2455,168.0621,0,U,22220,999,74033,.801488E-6,-.46E-6,0
COSMOS 2221,1992-080A,2026-07-18T07:06:41.849280,14.96608683,.0015866,82.5048,153.9595,110.7403,249.5521,0,U,22236,999,80032,.70005963E-4,.826E-5,0
SL-16 R/B,1992-093B,2026-07-18T02:59:56.645952,14.15464648,.00021813,71.0215,90.4452,126.0636,234.0689,0,U,22285,999,73161,-.1091731E-3,-.261E-5,0
COSMOS 2228,1992-094A,2026-07-18T14:58:04.826208,14.97681121,.0016565,82.5186,111.9315,216.8006,143.2081,0,U,22286,999,79565,.67676015E-4,.821E-5,0
SL-16 R/B,1993-016B,2026-07-18T07:41:18.070656,14.15314439,.00087013,71.0087,300.8169,132.3778,227.8083,0,U,22566,999,72065,.17396808E-3,.291E-5,0
COSMOS 2242,1993-024A,2026-07-18T06:19:13.391616,14.96989760,.00148438,82.5200,141.8116,221.4152,138.5947,0,U,22626,999,79992,.71731588E-4,.853E-5,0
SL-16 R/B,1993-059B,2026-07-18T02:55:18.460416,14.17249470,.00168195,70.9901,96.0693,4.2254,355.9008,0,U,22803,999,69801,.56509137E-4,.66E-6,0
ARIANE 40 R/B,1993-061H,2026-07-18T05:00:56.355840,14.32919189,.00095357,98.4804,265.4194,255.7525,104.2601,0,U,22830,999,71279,.38370334E-4,.62E-6,0
COSMOS 2278,1994-023A,2026-07-18T13:51:02.655648,14.14393985,.00094619,71.0518,261.2500,200.5197,159.5547,0,U,23087,999,66331,.90670087E-4,.126E-5,0
SL-16 R/B,1994-023B,2026-07-18T15:15:10.826208,14.15026092,.00013283,70.9989,155.8867,114.5744,245.5518,0,U,23088,999,66461,.16270236E-3,.268E-5,0
SL-16 R/B,1994-074B,2026-07-18T13:05:16.538784,14.79525915,.00074065,97.6986,224.9583,144.5054,8.1125,0,U,23343,999,70659,.27855453E-4,.159E-5,0
